NORAD_CAT_ID,OBJECT_NAME,OBJECT_TYPE,EPOCH,MEAN_MOTION,ECCENTRICITY,INCLINATION,RA_OF_ASC_NODE,ARG_OF_PERICENTER,MEAN_ANOMALY,BSTAR,MEAN_MOTION_DOT,MEAN_MOTION_DDOT,TLE_LINE0,TLE_LINE1,TLE_LINE2,SEMIMAJOR_AXIS,PERIOD,APOGEE,PERIGEE,DECAYED
55654.0,STARLINK-5070,PAYLOAD,2023-09-13 09:29:14,14.98332615,0.0003248,70.0004,314.7512,271.9678,88.1109,0.00011353,1.262e-05,0.0,0 STARLINK-5070,1 55654U 23021AC  23256.39530872  .00001262  00000-0  11353-3 0  9995,2 55654  70.0004 314.7512 0003248 271.9678  88.1109 14.98332615 32439,6950.185,96.107,574.307,569.792,0.0
55654.0,STARLINK-5070,PAYLOAD,2023-09-13 12:41:30,14.98337719,0.0002957,70.0005,314.4148,265.7644,94.3177,0.00010544,1.166e-05,0.0,0 STARLINK-5070,1 55654U 23021AC  23256.52882512  .00001166  00000-0  10544-3 0  9995,2 55654  70.0005 314.4148 0002957 265.7644  94.3177 14.98337719 32751,6950.169,96.107,574.089,569.979,0.0
55654.0,STARLINK-5070,PAYLOAD,2023-09-13 20:42:10,14.98389563,0.000308,70.0038,313.5739,274.304,85.7767,-0.0011814,-0.00014183,0.0,0 STARLINK-5070,1 55654U 23021AC  23256.86262002 -.00014183  00000-0 -11814-2 0  9993,2 55654  70.0038 313.5739 0003080 274.3040  85.7767 14.98389563 32806,6950.009,96.103,574.014,569.733,0.0
55654.0,STARLINK-5070,PAYLOAD,2023-09-14 09:31:17,14.98315113,0.0003394,70.0003,312.2264,274.6897,85.3874,-0.00016074,-2.01e-05,0.0,0 STARLINK-5070,1 55654U 23021AC  23257.39672853 -.00002010  00000-0 -16074-3 0  9991,2 55654  70.0003 312.2264 0003394 274.6897  85.3874 14.98315113 32588,6950.239,96.108,574.463,569.745,0.0
55654.0,STARLINK-5070,PAYLOAD,2023-09-14 12:43:33,14.98317511,0.0003087,70.0004,311.8898,272.7055,87.375,-0.00015336,-1.922e-05,0.0,0 STARLINK-5070,1 55654U 23021AC  23257.53024781 -.00001922  00000-0 -15336-3 0  9999,2 55654  70.0004 311.8898 0003087 272.7055  87.3750 14.98317511 32906,6950.232,96.108,574.242,569.951,0.0
55654.0,STARLINK-5070,PAYLOAD,2023-09-14 20:44:13,14.98322651,0.0003282,70.0004,311.0461,276.9259,83.1526,-0.0001111,-1.418e-05,0.0,0 STARLINK-5070,1 55654U 23021AC  23257.86404550 -.00001418  00000-0 -11110-3 0  9997,2 55654  70.0004 311.0461 0003282 276.9259  83.1526 14.98322651 32954,6950.216,96.107,574.362,569.8,0.0
55654.0,STARLINK-5070,PAYLOAD,2023-09-15 03:08:45,14.98323065,0.0003125,70.0008,310.3747,268.7843,91.2958,-0.0001159,-1.475e-05,0.0,0 STARLINK-5070,1 55654U 23021AC  23258.13108652 -.00001475  00000-0 -11590-3 0  9997,2 55654  70.0008 310.3747 0003125 268.7843  91.2958 14.98323065 32691,6950.214,96.107,574.251,569.907,0.0
55654.0,STARLINK-5070,PAYLOAD,2023-09-15 12:45:34,14.98326238,0.0002843,70.0006,309.365,266.3703,93.7131,-7.3349e-05,-9.68e-06,0.0,0 STARLINK-5070,1 55654U 23021AC  23258.53164498 -.00000968  00000-0 -73349-4 0  9998,2 55654  70.0006 309.3650 0002843 266.3703  93.7131 14.98326238 33051,6950.205,96.107,574.045,570.094,0.0
55654.0,STARLINK-5070,PAYLOAD,2023-09-15 20:46:14,14.98323971,0.0002912,69.9998,308.5218,259.8836,100.1995,9.5336e-05,1.045e-05,0.0,0 STARLINK-5070,1 55654U 23021AC  23258.86544246  .00001045  00000-0  95336-4 0  9992,2 55654  69.9998 308.5218 0002912 259.8836 100.1995 14.98323971 32804,6950.212,96.107,574.1,570.053,0.0
55654.0,STARLINK-5070,PAYLOAD,2023-09-16 12:47:34,14.98328771,0.000313,69.9997,306.8386,273.1269,86.9532,0.00024066,2.78e-05,0.0,0 STARLINK-5070,1 55654U 23021AC  23259.53303618  .00002780  00000-0  24066-3 0  9991,2 55654  69.9997 306.8386 0003130 273.1269  86.9532 14.98328771 33208,6950.197,96.107,574.237,569.886,0.0
55654.0,STARLINK-5070,PAYLOAD,2023-09-16 20:48:15,14.98325128,0.0003215,69.9998,305.9971,278.3782,81.7013,0.00019599,2.246e-05,0.0,0 STARLINK-5070,1 55654U 23021AC  23259.86684029  .00002246  00000-0  19599-3 0  9997,2 55654  69.9998 305.9971 0003215 278.3782  81.7013 14.98325128 32951,6950.208,96.107,574.307,569.838,0.0
55654.0,STARLINK-5070,PAYLOAD,2023-09-17 12:49:35,14.98335316,0.0003279,69.9996,304.314,275.5067,84.5718,8.2915e-05,8.97e-06,0.0,0 STARLINK-5070,1 55654U 23021AC  23260.53443520  .00000897  00000-0  82915-4 0  9995,2 55654  69.9996 304.3140 0003279 275.5067  84.5718 14.98335316 33353,6950.176,96.107,574.32,569.762,0.0
55654.0,STARLINK-5070,PAYLOAD,2023-09-18 12:51:36,14.98298216,0.0002924,69.9999,301.789,277.486,82.5967,0.00058767,6.92e-05,0.0,0 STARLINK-5070,1 55654U 23021AC  23261.53584357  .00006920  00000-0  58767-3 0  9990,2 55654  69.9999 301.7890 0002924 277.4860  82.5967 14.98298216 33505,6950.291,96.109,574.188,570.124,0.0
55654.0,STARLINK-5070,PAYLOAD,2023-09-19 09:41:20,14.98338488,0.0003112,69.9997,299.6005,274.6841,85.3963,3.0849e-05,2.75e-06,0.0,0 STARLINK-5070,1 55654U 23021AC  23262.40370730  .00000275  00000-0  30849-4 0  9994,2 55654  69.9997 299.6005 0003112 274.6841  85.3963 14.98338488 33338,6950.167,96.106,574.195,569.869,0.0
55654.0,STARLINK-5070,PAYLOAD,2023-09-20 03:18:49,14.98323306,0.0002557,70.0008,297.7497,268.9404,91.1462,3.2705e-05,2.97e-06,0.0,0 STARLINK-5070,1 55654U 23021AC  23263.13807569  .00000297  00000-0  32705-4 0  9997,2 55654  70.0008 297.7497 0002557 268.9404  91.1462 14.98323306 33445,6950.214,96.107,573.856,570.301,0.0
55654.0,STARLINK-5070,PAYLOAD,2023-09-20 11:19:30,14.98337601,0.0002795,70.0001,296.9084,267.0122,93.0718,-0.00039971,-4.86e-05,0.0,0 STARLINK-5070,1 55654U 23021AC  23263.47187785 -.00004860  00000-0 -39971-3 0  9998,2 55654  70.0001 296.9084 0002795 267.0122  93.0718 14.98337601 33798,6950.169,96.107,573.977,570.092,0.0
55654.0,STARLINK-5070,PAYLOAD,2023-09-21 09:45:22,14.98329009,0.0003042,69.9993,294.5519,261.1387,98.9427,-5.2994e-05,-7.25e-06,0.0,0 STARLINK-5070,1 55654U 23021AC  23264.40651561 -.00000725  00000-0 -52994-4 0  9997,2 55654  69.9993 294.5519 0003042 261.1387  98.9427 14.98329009 33633,6950.196,96.107,574.175,569.947,0.0
55654.0,STARLINK-5070,PAYLOAD,2023-09-21 11:21:30,14.9833017,0.0003178,69.9989,294.3827,266.3849,93.6946,-5.3688e-05,-7.34e-06,0.0,0 STARLINK-5070,1 55654U 23021AC  23264.47327505 -.00000734  00000-0 -53688-4 0  9993,2 55654  69.9989 294.3827 0003178 266.3849  93.6946 14.98330170 33941,6950.192,96.107,574.266,569.849,0.0
55654.0,STARLINK-5070,PAYLOAD,2023-09-21 19:22:11,14.98333353,0.0003253,69.9987,293.5407,269.0462,91.0324,-6.7017e-05,-8.93e-06,0.0,0 STARLINK-5070,1 55654U 23021AC  23264.80707330 -.00000893  00000-0 -67017-4 0  9995,2 55654  69.9987 293.5407 0003253 269.0462  91.0324 14.98333353 33992,6950.183,96.107,574.308,569.787,0.0
55654.0,STARLINK-5070,PAYLOAD,2023-09-22 09:47:23,14.98329754,0.0003294,69.9986,292.0256,268.7486,91.3295,0.00011955,1.334e-05,0.0,0 STARLINK-5070,1 55654U 23021AC  23265.40791141  .00001334  00000-0  11955-3 0  9993,2 55654  69.9986 292.0256 0003294 268.7486  91.3295 14.98329754 33781,6950.194,96.107,574.348,569.769,0.0
55654.0,STARLINK-5070,PAYLOAD,2023-09-22 11:23:31,14.98330649,0.0003293,69.9986,291.8573,268.7029,91.3753,0.00012625,1.414e-05,0.0,0 STARLINK-5070,1 55654U 23021AC  23265.47467065  .00001414  00000-0  12625-3 0  9999,2 55654  69.9986 291.8573 0003293 268.7029  91.3753 14.98330649 34091,6950.191,96.107,574.345,569.767,0.0
55654.0,STARLINK-5070,PAYLOAD,2023-09-22 19:24:12,14.98328363,0.0003277,69.9986,291.0145,267.6663,92.4121,8.9816e-05,9.79e-06,0.0,0 STARLINK-5070,1 55654U 23021AC  23265.80847299  .00000979  00000-0  89816-4 0  9999,2 55654  69.9986 291.0145 0003277 267.6663  92.4121 14.98328363 34149,6950.198,96.107,574.341,569.785,0.0
55654.0,STARLINK-5070,PAYLOAD,2023-09-23 11:25:32,14.98332316,0.0003289,69.9985,289.3314,269.203,90.8752,5.4864e-05,5.62e-06,0.0,0 STARLINK-5070,1 55654U 23021AC  23266.47607122  .00000562  00000-0  54864-4 0  9995,2 55654  69.9985 289.3314 0003289 269.2030  90.8752 14.98332316 33947,6950.186,96.107,574.337,569.765,0.0
55654.0,STARLINK-5070,PAYLOAD,2023-09-24 11:27:33,14.98335832,0.0003278,69.9985,286.8067,269.8428,90.2355,1.0186e-05,2.8e-07,0.0,0 STARLINK-5070,1 55654U 23021AC  23267.47746834  .00000028  00000-0  10186-4 0  9996,2 55654  69.9985 286.8067 0003278 269.8428  90.2355 14.98335832 34398,6950.175,96.107,574.318,569.762,0.0
55654.0,STARLINK-5070,PAYLOAD,2023-09-25 11:29:34,14.98333012,0.0003137,69.9988,284.2817,270.4589,89.621,1.3124e-05,6.4e-07,0.0,0 STARLINK-5070,1 55654U 23021AC  23268.47886854  .00000064  00000-0  13124-4 0  9999,2 55654  69.9988 284.2817 0003137 270.4589  89.6210 14.98333012 34543,6950.184,96.107,574.229,569.868,0.0
55654.0,STARLINK-5070,PAYLOAD,2023-09-25 17:54:06,14.98332295,0.0003096,69.9989,283.6083,271.2405,88.8399,4.7232e-06,-3.7e-07,0.0,0 STARLINK-5070,1 55654U 23021AC  23268.74590885 -.00000037  00000-0  47232-5 0  9994,2 55654  69.9989 283.6083 0003096 271.2405  88.8399 14.98332295 34284,6950.186,96.107,574.203,569.899,0.0
55654.0,STARLINK-5070,PAYLOAD,2023-09-26 09:55:26,14.98333772,0.0003081,69.9987,281.9253,268.447,91.6336,2.6782e-05,2.27e-06,0.0,0 STARLINK-5070,1 55654U 23021AC  23269.41350558  .00000227  00000-0  26782-4 0  9996,2 55654  69.9987 281.9253 0003081 268.4470  91.6336 14.98333772 34684,6950.181,96.107,574.188,569.905,0.0
55654.0,STARLINK-5070,PAYLOAD,2023-09-27 01:56:48,14.98326501,0.0003045,69.9984,280.2415,270.425,89.656,-4.385e-05,-6.16e-06,0.0,0 STARLINK-5070,1 55654U 23021AC  23270.08111203 -.00000616  00000-0 -43850-4 0  9992,2 55654  69.9984 280.2415 0003045 270.4250  89.6560 14.98326501 34488,6950.204,96.107,574.185,569.952,0.0
55654.0,STARLINK-5070,PAYLOAD,2023-09-27 11:33:36,14.98325815,0.0003043,69.9984,279.2316,269.9891,90.0919,-4.5939e-05,-6.41e-06,0.0,0 STARLINK-5070,1 55654U 23021AC  23270.48167322 -.00000641  00000-0 -45939-4 0  9997,2 55654  69.9984 279.2316 0003043 269.9891  90.0919 14.98325815 34849,6950.206,96.107,574.186,569.956,0.0
55654.0,STARLINK-5070,PAYLOAD,2023-09-28 01:58:49,14.98329261,0.0003004,69.9984,277.7166,269.2218,90.8596,-3.8666e-05,-5.54e-06,0.0,0 STARLINK-5070,1 55654U 23021AC  23271.08251158 -.00000554  00000-0 -38666-4 0  9997,2 55654  69.9984 277.7166 0003004 269.2218  90.8596 14.98329261 34633,6950.195,96.107,574.148,569.972,0.0
